TK-2                    
1 52150U 22031A   22115.24117048  .00002012  00000+0  21123-3 0  9995
2 52150  97.7982 288.3327 0013979 168.4552 191.6990 14.90535778  3995
PUJIANG 2 (PJ-2)        
1 52151U 22031B   22115.10399120  .00000983  00000+0  10574-3 0  9997
2 52151  97.7859 288.1667 0012822 173.2694 186.8699 14.90693280  3974
CZ-6A R/B               
1 52152U 22031C   22114.51481562  .00000868  00000+0  79072-4 0  9995
2 52152  97.7862 287.8338 0027103 278.5445  81.2706 14.97537833  3909
2022-032A               
1 52153U 22032A   22115.13236528  .00001097  00000+0  11902-3 0  9998
2 52153  97.7941 164.9548 0012144 169.8313 190.3155 14.90124889  3873
2022-032C               
1 52155U 22032C   22115.10500555  .00001551  00000+0  15894-3 0  9990
2 52155  97.8005 165.0105 0015873 198.2612 161.8073 14.91835816  3870
2022-032D               
1 52156U 22032D   22115.10417355  .00002415  00000+0  24385-3 0  9991
2 52156  97.7870 164.9696 0015932 198.5465 161.5206 14.91909510  3887
OMNI-L1                 
1 52157U 22033A   22115.21074276  .00001125  00000+0  17733-3 0  9992
2 52157  97.9476 198.0896 0013525 175.8416 184.2908 14.74305821  3474
GNOMES-3                
1 52158U 22033B   22115.20195507  .00001359  00000+0  20999-3 0  9990
2 52158  97.9484 198.1040 0012861 186.2481 173.8569 14.74862662  3474
2022-033C               
1 52159U 22033C   22114.65544384  .00000525  00000+0  85525-4 0  9991
2 52159  97.9773 197.6338 0007573 198.2878 161.8060 14.74986389  3394
ALFACRUX                
1 52160U 22033D   22115.22335315  .00010475  00000+0  48002-3 0  9992
2 52160  97.3886 197.6116 0009767 208.5807 151.4894 15.20609286  3584
ARCSAT-1                
1 52161U 22033E   22115.22355718  .00005447  00000+0  25221-3 0  9993
2 52161  97.3872 197.6054 0009584 203.7994 156.2800 15.20484875  3587
LYNK TOWER 1            
1 52162U 22033F   22115.21566210  .00004009  00000+0  18381-3 0  9996
2 52162  97.3863 197.6103 0010482 188.3474 171.7589 15.20972548  3588
ION SCV-005             
1 52163U 22033G   22114.55962832  .00002262  00000+0  10714-3 0  9994
2 52163  97.5942 197.0797 0012997 180.7365 179.3853 15.20322597  3480
SPACEBEE-136            
1 52164U 22033H   22114.48822350  .00017570  00000+0  78274-3 0  9990
2 52164  97.3814 196.8902 0009676 198.2533 161.8357 15.21458162  3476
HAWK-4B                 
1 52165U 22033J   22114.48958953  .00010662  00000+0  47791-3 0  9995
2 52165  97.3866 196.9083 0010320 199.6796 160.4043 15.21361427  3473
SPACEBEE-138            
1 52166U 22033K   22114.48886295  .00016374  00000+0  73073-3 0  9993
2 52166  97.3835 196.8956 0011341 190.2043 169.8964 15.21398082  3476
HAWK-4A                 
1 52167U 22033L   22114.68920235  .00015695  00000+0  70616-3 0  9994
2 52167  97.3819 197.0919 0010238 195.5030 164.5894 15.21138193  3502
NUSAT-23 (ANNIE MAUNDER)
1 52168U 22033M   22115.09819581  .00007325  00000+0  33292-3 0  9992
2 52168  97.3845 197.4858 0009738 192.7241 232.7743 15.21006057  3564
MP42                    
1 52169U 22033N   22114.48569465  .00007043  00000+0  31602-3 0  9998
2 52169  97.3866 196.9151 0012117 194.8675 165.2207 15.21437879  3472
HAWK-4C                 
1 52170U 22033P   22114.48725866  .00009236  00000+0  41795-3 0  9999
2 52170  97.3851 196.9066 0012535 186.4808 173.6267 15.21052727  3476
NUSAT-25 (MARIA TELKES) 
1 52171U 22033Q   22115.22190525  .00008343  00000+0  36221-3 0  9997
2 52171  97.3833 197.6477 0011423 187.0502 257.9508 15.22513050  3582
NUSAT-27 (SALLY RIDE)   
1 52172U 22033R   22115.08788395  .00007448  00000+0  32239-3 0  9990
2 52172  97.3794 197.5106 0012047 181.1928 265.9604 15.22645025  3569
SHAKUNTALA              
1 52173U 22033S   22115.09166964  .00012680  00000+0  55541-3 0  9999
2 52173  97.3893 197.5385 0014052 185.4718 292.8278 15.22063575  3561
2022-033T               
1 52174U 22033T   22115.19952612  .00010082  00000+0  44111-3 0  9999
2 52174  97.3857 197.6305 0013847 181.6178 178.5016 15.22163496  3589
BDSAT                   
1 52175U 22033U   22115.19906774  .00010617  00000+0  46383-3 0  9995
2 52175  97.3886 197.6436 0014083 183.5830 176.5308 15.22198358  3583
SPACEBEE-130            
1 52176U 22033V   22114.49056846  .00019194  00000+0  85814-3 0  9995
2 52176  97.3825 196.8888 0007923 190.4182 169.6891 15.21330849  3471
SPACEBEE-139            
1 52177U 22033W   22114.62339895  .00018230  00000+0  81715-3 0  9995
2 52177  97.3833 197.0210 0010703 194.9057 165.1865 15.21230279  3471
NUSAT-24 (KALPANA CHAW*)
1 52178U 22033X   22115.21953792  .00008240  00000+0  36584-3 0  9994
2 52178  97.3832 197.6205 0009751 195.8139 182.1413 15.21767010  3570
SPACEBEE-129            
1 52179U 22033Y   22114.49265683  .00014940  00000+0  67319-3 0  9993
2 52179  97.3826 196.8876 0009287 197.6995 162.3918 15.21105793  3476
SPACEBEE-134            
1 52180U 22033Z   22114.82046835  .00014837  00000+0  66633-3 0  9991
2 52180  97.3833 197.2135 0009554 196.6196 163.4728 15.21219382  3503
SPACEBEE-131            
1 52181U 22033AA  22114.49224506  .00016633  00000+0  74758-3 0  9991
2 52181  97.3829 196.8887 0009317 199.1247 160.9640 15.21170175  3477
SPACEBEE-128            
1 52182U 22033AB  22115.21618926  .00013417  00000+0  60429-3 0  9993
2 52182  97.3841 197.6019 0009515 194.7416 165.3544 15.21143855  3564
SPACEBEE-133            
1 52183U 22033AC  22115.21559586  .00014567  00000+0  65446-3 0  9991
2 52183  97.3831 197.5990 0009470 196.2133 163.8801 15.21210455  3564
2022-033AD              
1 52184U 22033AD  22114.82334873  .00007205  00000+0  33016-3 0  9997
2 52184  97.3864 197.2207 0009936 192.0972 168.0026 15.20726986  3523
SPACEBEE-132            
1 52185U 22033AE  22115.21446713  .00014549  00000+0  65226-3 0  9996
2 52185  97.3836 197.6033 0008887 208.0007 152.0752 15.21290261  3561
SPACEBEE-137            
1 52186U 22033AF  22115.21477520  .00013961  00000+0  62664-3 0  9997
2 52186  97.3836 197.6019 0009818 195.1870 164.9072 15.21250998  3565
SPACEBEE-135            
1 52187U 22033AG  22114.49090837  .00017952  00000+0  80405-3 0  9996
2 52187  97.3835 196.8941 0009168 194.1521 165.9459 15.21273292  3472
PLANTSAT                
1 52188U 22033AH  22114.80912021  .00010015  00000+0  43795-3 0  9994
2 52188  97.3864 197.2402 0005533 206.5501 153.5453 15.22255656  3472
KSF2 C                  
1 52189U 22033AJ  22115.22567372  .00012121  00000+0  54605-3 0  9999
2 52189  97.3793 197.6104 0010695 186.6391 231.0034 15.21150247  3585
KSF2 D                  
1 52190U 22033AK  22115.16530456  .00012490  00000+0  56251-3 0  9995
2 52190  97.3789 197.5511 0010851 186.3573 260.9710 15.21151756  3573
SUCHAI-3                
1 52191U 22033AL  22115.22175742  .00009339  00000+0  43226-3 0  9992
2 52191  97.3969 197.6151 0011934 169.8045 190.3434 15.20277620  3586
2022-034A               
1 52195U 22034A   22114.58727254  .00205516  00000+0  34740-2 0  9991
2 52195  53.0013 237.2612 0015674   2.3352 357.7726 15.50251098  3418
GLOBAL-18               
1 52196U 22034B   22114.62220450  .00021797  00000+0  46460-3 0  9993
2 52196  53.0023 237.4871 0010091   3.8730 356.2534 15.44826715  3411
GLOBAL-20               
1 52197U 22034C   22114.87313841  .00022352  00000+0  46681-3 0  9991
2 52197  53.0014 236.1996 0011845 356.2673   3.8242 15.45391565  3451
GAOFEN-3 03             
1 52200U 22035A   22115.05329143 -.00000001  00000+0  13034-4 0  9995
2 52200  98.4164 123.7428 0001691  97.3134 262.8271 14.42207647  2618
CZ-4C R/B               
1 52201U 22035B   22114.59217391  .00000760  00000+0  12277-3 0  9993
2 52201  98.3991 123.9845 0111743 355.7641   4.2604 14.70564663  2584
COSMOS 2554             
1 52202U 22036A   22115.15709038 -.00000096  00000+0 -15162-4 0  9993
2 52202  67.1499 308.5318 0007042 263.5338  96.4958 13.96673080  2523
SL-4 R/B                
1 52203U 22036B   22115.05703577  .00150751  88429-5  76860-3 0  9995
2 52203  67.1345 301.1209 0436952  76.2593 288.6778 15.08989301  2649
AXIOM-1                 
1 52204U 22037A   22115.37591829  .00049032  11899-4  10000-3 0  9996
2 52204  51.6414 238.0844 0132135 164.3416 237.6243 15.85882978  2599
CHINASAT 6D             
1 52255U 22038A   22112.64114588 -.00740360 -67347-5 -35893-3 0  9995
2 52255  28.3983  18.1225 7412414 181.6254   9.9009  2.19489942   165
CZ-3B R/B               
1 52256U 22038B   22106.98508792 -.00001057  12175-5  00000+0 0  9998
2 52256  28.4754  20.2913 7219492 179.3584 182.5406  2.38783343    41
DAQI 1                  
1 52257U 22039A   22115.13251844  .00000472  00000+0  11339-3 0  9998
2 52257  98.1335  56.8205 0000718 219.1005 141.0148 14.57662200  1364
CZ-4C R/B               
1 52258U 22039B   22114.86861924  .00003350  00000+0  28955-3 0  9994
2 52258  98.1636  57.0701 0140064  32.7727 328.2148 14.90646180  1356
SZ-13 MODULE            
1 52260U 21092C   22114.54239567  .00028653  00000+0  28700-3 0  9993
2 52260  41.4808 184.9305 0007346  98.5180 261.6493 15.64869486   944
